start=new Date('2021-10-19T00:00:00.000Z').valueOf();
sats=[{"OBJECT_TYPE":"PAYLOAD","OBJECT_NAME":"STARLINK-2688","EPHEMERIS_TYPE":"0","REF_FRAME":"TEME","MEAN_MOTION":"15.06398246","FILE":"3170620","SITE":"AFETR","MEAN_MOTION_DDOT":"0.0000000000000","MEAN_MOTION_DOT":"0.00002397","ECCENTRICITY":"0.00017280","GP_ID":"187538396","CENTER_NAME":"EARTH","LAUNCH_DATE":"2021-05-26","RA_OF_ASC_NODE":"118.5474","PERIAPSIS":"546.022","MEAN_ELEMENT_THEORY":"SGP4","PERIOD":"95.592","SEMIMAJOR_AXIS":"6925.354","COUNTRY_CODE":"US","EPOCH":"2021-10-18T12:19:26.781888","BSTAR":"0.00017975000000","APOAPSIS":"548.416","TLE_LINE2":"2 48660  53.0547 118.5474 0001728  78.1881 281.9302 15.06398246 22071","TLE_LINE1":"1 48660U 21044Y   21291.51350442  .00002397  00000-0  17975-3 0  9997","OBJECT_ID":"2021-044Y","REV_AT_EPOCH":"2207","INCLINATION":"53.0547","DECAY_DATE":null,"RCS_SIZE":"LARGE","TIME_SYSTEM":"UTC","ELEMENT_SET_NO":"999","ARG_OF_PERICENTER":"78.1881","MEAN_ANOMALY":"281.9302","CLASSIFICATION_TYPE":"U","NORAD_CAT_ID":"48660"},{"COUNTRY_CODE":"US","EPOCH":"2021-10-18T15:31:49.117728","BSTAR":"0.00007680100000","PERIOD":"95.592","SEMIMAJOR_AXIS":"6925.343","PERIAPSIS":"546.005","RA_OF_ASC_NODE":"107.9395","MEAN_ELEMENT_THEORY":"SGP4","CENTER_NAME":"EARTH","LAUNCH_DATE":"2021-05-26","MEAN_MOTION_DDOT":"0.0000000000000","MEAN_MOTION_DOT":"0.00000863","GP_ID":"187538842","ECCENTRICITY":"0.00017370","FILE":"3170620","SITE":"AFETR","EPHEMERIS_TYPE":"0","REF_FRAME":"TEME","MEAN_MOTION":"15.06401693","OBJECT_TYPE":"PAYLOAD","OBJECT_NAME":"STARLINK-2708","NORAD_CAT_ID":"48661","CLASSIFICATION_TYPE":"U","ARG_OF_PERICENTER":"89.0132","MEAN_ANOMALY":"271.1056","ELEMENT_SET_NO":"999","TIME_SYSTEM":"UTC","INCLINATION":"53.0543","DECAY_DATE":null,"RCS_SIZE":"LARGE","REV_AT_EPOCH":"2223","OBJECT_ID":"2021-044Z","TLE_LINE2":"2 48661  53.0543 107.9395 0001737  89.0132 271.1056 15.06401693 22238","TLE_LINE1":"1 48661U 21044Z   21291.64709627  .00000863  00000-0  76801-4 0  9995","APOAPSIS":"548.411"},{"ELEMENT_SET_NO":"999","TIME_SYSTEM":"UTC","MEAN_ANOMALY":"270.5262","ARG_OF_PERICENTER":"89.5916","CLASSIFICATION_TYPE":"U","NORAD_CAT_ID":"48662","APOAPSIS":"548.355","TLE_LINE2":"2 48662  53.0560 107.9574 0001649  89.5916 270.5262 15.06400156 22239","TLE_LINE1":"1 48662U 21044AA  21291.64340848  .00000348  00000-0  42275-4 0  9998","REV_AT_EPOCH":"2223","OBJECT_ID":"2021-044AA","INCLINATION":"53.0560","DECAY_DATE":null,"RCS_SIZE":"LARGE","CENTER_NAME":"EARTH","LAUNCH_DATE":"2021-05-26","PERIAPSIS":"546.071","RA_OF_ASC_NODE":"107.9574","MEAN_ELEMENT_THEORY":"SGP4","SEMIMAJOR_AXIS":"6925.348","PERIOD":"95.592","COUNTRY_CODE":"US","EPOCH":"2021-10-18T15:26:30.492672","BSTAR":"0.00004227500000","OBJECT_TYPE":"PAYLOAD","OBJECT_NAME":"STARLINK-2726","REF_FRAME":"TEME","EPHEMERIS_TYPE":"0","MEAN_MOTION":"15.06400156","FILE":"3170620","SITE":"AFETR","MEAN_MOTION_DOT":"0.00000348","MEAN_MOTION_DDOT":"0.0000000000000","ECCENTRICITY":"0.00016490","GP_ID":"187538508"},{"REV_AT_EPOCH":"2223","OBJECT_ID":"2021-044AB","RCS_SIZE":"LARGE","INCLINATION":"53.0549","DECAY_DATE":null,"APOAPSIS":"548.454","TLE_LINE2":"2 48663  53.0549 107.9719 0001790  89.0064 271.1130 15.06399728 22237","TLE_LINE1":"1 48663U 21044AB  21291.63973562  .00001134  00000-0  95011-4 0  9993","CLASSIFICATION_TYPE":"U","NORAD_CAT_ID":"48663","TIME_SYSTEM":"UTC","ELEMENT_SET_NO":"999","ARG_OF_PERICENTER":"89.0064","MEAN_ANOMALY":"271.1130","SITE":"AFETR","FILE":"3170620","ECCENTRICITY":"0.00017900","GP_ID":"187538283","MEAN_MOTION_DOT":"0.00001134","MEAN_MOTION_DDOT":"0.0000000000000","OBJECT_NAME":"STARLINK-2667","OBJECT_TYPE":"PAYLOAD","MEAN_MOTION":"15.06399728","REF_FRAME":"TEME","EPHEMERIS_TYPE":"0","PERIOD":"95.592","SEMIMAJOR_AXIS":"6925.349","COUNTRY_CODE":"US","BSTAR":"0.00009501100000","EPOCH":"2021-10-18T15:21:13.157568","CENTER_NAME":"EARTH","LAUNCH_DATE":"2021-05-26","MEAN_ELEMENT_THEORY":"SGP4","PERIAPSIS":"545.975","RA_OF_ASC_NODE":"107.9719"},{"RA_OF_ASC_NODE":"107.9929","PERIAPSIS":"546.015","MEAN_ELEMENT_THEORY":"SGP4","CENTER_NAME":"EARTH","LAUNCH_DATE":"2021-05-26","COUNTRY_CODE":"US","EPOCH":"2021-10-18T15:15:54.761472","BSTAR":"0.00008902000000","PERIOD":"95.592","SEMIMAJOR_AXIS":"6925.354","EPHEMERIS_TYPE":"0","REF_FRAME":"TEME","MEAN_MOTION":"15.06398217","OBJECT_TYPE":"PAYLOAD","OBJECT_NAME":"STARLINK-2709","MEAN_MOTION_DOT":"0.00001045","MEAN_MOTION_DDOT":"0.0000000000000","GP_ID":"187538060","ECCENTRICITY":"0.00017380","FILE":"3170620","SITE":"AFETR","MEAN_ANOMALY":"273.8554","ARG_OF_PERICENTER":"86.2634","ELEMENT_SET_NO":"999","TIME_SYSTEM":"UTC","NORAD_CAT_ID":"48664","CLASSIFICATION_TYPE":"U","TLE_LINE2":"2 48664  53.0558 107.9929 0001738  86.2634 273.8554 15.06398217 22236","TLE_LINE1":"1 48664U 21055E   21291.63605048  .00001045  00000-0  89020-4 0  9991","APOAPSIS":"548.423","INCLINATION":"53.0558","DECAY_DATE":null,"RCS_SIZE":"LARGE","REV_AT_EPOCH":"2223","OBJECT_ID":"2021-044AC"},{"SEMIMAJOR_AXIS":"6925.346","PERIOD":"95.592","COUNTRY_CODE":"US","BSTAR":"0.00003888800000","EPOCH":"2021-10-18T15:35:45.915936","CENTER_NAME":"EARTH","LAUNCH_DATE":"2021-05-26","RA_OF_ASC_NODE":"107.9297","PERIAPSIS":"545.987","MEAN_ELEMENT_THEORY":"SGP4","FILE":"3170620","SITE":"AFETR","MEAN_MOTION_DDOT":"0.0000000000000","MEAN_MOTION_DOT":"0.00000298","ECCENTRICITY":"0.00017670","GP_ID":"187538734","OBJECT_TYPE":"PAYLOAD","OBJECT_NAME":"STARLINK-2653","REF_FRAME":"TEME","EPHEMERIS_TYPE":"0","MEAN_MOTION":"15.06400988","CLASSIFICATION_TYPE":"U","NORAD_CAT_ID":"48665","TIME_SYSTEM":"UTC","ELEMENT_SET_NO":"999","ARG_OF_PERICENTER":"85.9490","MEAN_ANOMALY":"274.1701","OBJECT_ID":"2021-044AD","REV_AT_EPOCH":"2223","INCLINATION":"53.0558","DECAY_DATE":null,"RCS_SIZE":"LARGE","APOAPSIS":"548.434","TLE_LINE2":"2 48665  53.0558 107.9297 0001767  85.9490 274.1701 15.06400988 22230","TLE_LINE1":"1 48665U 21044AD  21291.64983699  .00000298  00000-0  38888-4 0  9997"},{"FILE":"3170620","SITE":"AFETR","MEAN_MOTION_DOT":"-0.00000385","MEAN_MOTION_DDOT":"0.0000000000000","ECCENTRICITY":"0.00018500","GP_ID":"187538171","OBJECT_TYPE":"PAYLOAD","OBJECT_NAME":"STARLINK-2666","EPHEMERIS_TYPE":"0","REF_FRAME":"TEME","MEAN_MOTION":"15.06393395","SEMIMAJOR_AXIS":"6925.369","PERIOD":"95.593","EPOCH":"2021-10-18T16:23:33.095616","BSTAR":"-0.00000695340000","COUNTRY_CODE":"US","LAUNCH_DATE":"2021-05-26","CENTER_NAME":"EARTH","PERIAPSIS":"545.953","RA_OF_ASC_NODE":"107.7833","MEAN_ELEMENT_THEORY":"SGP4","REV_AT_EPOCH":"2223","OBJECT_ID":"2021-044AE","DECAY_DATE":null,"INCLINATION":"53.0545","RCS_SIZE":"LARGE","APOAPSIS":"548.515","TLE_LINE1":"1 48666U 21044AE  21291.68302194 -.00000385  00000-0 -69534-5 0  9999","TLE_LINE2":"2 48666  53.0545 107.7833 0001850  89.9123 270.2078 15.06393395 22238","CLASSIFICATION_TYPE":"U","NORAD_CAT_ID":"48666","TIME_SYSTEM":"UTC","ELEMENT_SET_NO":"999","ARG_OF_PERICENTER":"89.9123","MEAN_ANOMALY":"270.2078"},{"GP_ID":"187538621","ECCENTRICITY":"0.00019770","MEAN_MOTION_DDOT":"0.0000000000000","MEAN_MOTION_DOT":"0.00001234","SITE":"AFETR","FILE":"3170620","MEAN_MOTION":"15.06398242","REF_FRAME":"TEME","EPHEMERIS_TYPE":"0","OBJECT_NAME":"STARLINK-2735","OBJECT_TYPE":"PAYLOAD","EPOCH":"2021-10-18T13:35:04.122816","BSTAR":"0.00010176000000","COUNTRY_CODE":"US","PERIOD":"95.592","SEMIMAJOR_AXIS":"6925.354","MEAN_ELEMENT_THEORY":"SGP4","PERIAPSIS":"545.850","RA_OF_ASC_NODE":"108.3020","LAUNCH_DATE":"2021-05-26","CENTER_NAME":"EARTH","RCS_SIZE":"LARGE","DECAY_DATE":null,"INCLINATION":"53.0550","OBJECT_ID":"2021-044AF","REV_AT_EPOCH":"2222","TLE_LINE1":"1 48667U 21044AF  21291.56601994  .00001234  00000-0  10176-3 0  9995","TLE_LINE2":"2 48667  53.0550 108.3020 0001977  91.6429 268.4787 15.06398242 22220","APOAPSIS":"548.588","NORAD_CAT_ID":"48667","CLASSIFICATION_TYPE":"U","MEAN_ANOMALY":"268.4787","ARG_OF_PERICENTER":"91.6429","ELEMENT_SET_NO":"999","TIME_SYSTEM":"UTC"},{"CLASSIFICATION_TYPE":"U","NORAD_CAT_ID":"48668","TIME_SYSTEM":"UTC","ELEMENT_SET_NO":"999","ARG_OF_PERICENTER":"88.4406","MEAN_ANOMALY":"271.6776","REV_AT_EPOCH":"2223","OBJECT_ID":"2021-044AG","RCS_SIZE":"LARGE","DECAY_DATE":null,"INCLINATION":"53.0552","APOAPSIS":"548.412","TLE_LINE1":"1 48668U 21044AG  21291.62870264  .00001195  00000-0  99153-4 0  9990","TLE_LINE2":"2 48668  53.0552 108.0245 0001686  88.4406 271.6776 15.06389934 22238","SEMIMAJOR_AXIS":"6925.379","PERIOD":"95.593","EPOCH":"2021-10-18T15:05:19.908096","BSTAR":"0.00009915300000","COUNTRY_CODE":"US","LAUNCH_DATE":"2021-05-26","CENTER_NAME":"EARTH","MEAN_ELEMENT_THEORY":"SGP4","RA_OF_ASC_NODE":"108.0245","PERIAPSIS":"546.077","SITE":"AFETR","FILE":"3170620","GP_ID":"187538397","ECCENTRICITY":"0.00016860","MEAN_MOTION_DOT":"0.00001195","MEAN_MOTION_DDOT":"0.0000000000000","OBJECT_NAME":"STARLINK-2738","OBJECT_TYPE":"PAYLOAD","MEAN_MOTION":"15.06389934","REF_FRAME":"TEME","EPHEMERIS_TYPE":"0"},{"NORAD_CAT_ID":"48669","CLASSIFICATION_TYPE":"U","MEAN_ANOMALY":"270.7923","ARG_OF_PERICENTER":"89.3242","TIME_SYSTEM":"UTC","ELEMENT_SET_NO":"999","DECAY_DATE":null,"INCLINATION":"53.0510","RCS_SIZE":"LARGE","OBJECT_ID":"2021-044AH","REV_AT_EPOCH":"2222","TLE_LINE1":"1 48669U 21044AH  21291.62500985  .00001509  00000-0  12023-3 0  9990","TLE_LINE2":"2 48669  53.0510 108.0647 0001537  89.3242 270.7923 15.06393004 22228","APOAPSIS":"548.299","EPOCH":"2021-10-18T15:00:00.851040","BSTAR":"0.00012023000000","COUNTRY_CODE":"US","SEMIMAJOR_AXIS":"6925.370","PERIOD":"95.593","PERIAPSIS":"546.171","RA_OF_ASC_NODE":"108.0647","MEAN_ELEMENT_THEORY":"SGP4","LAUNCH_DATE":"2021-05-26","CENTER_NAME":"EARTH","MEAN_MOTION_DDOT":"0.0000000000000","MEAN_MOTION_DOT":"0.00001509","GP_ID":"187538843","ECCENTRICITY":"0.00015370","FILE":"3170620","SITE":"AFETR","REF_FRAME":"TEME","EPHEMERIS_TYPE":"0","MEAN_MOTION":"15.06393004","OBJECT_TYPE":"PAYLOAD","OBJECT_NAME":"STARLINK-2707"}];
